{
  "type": "FeatureCollection",
  "features": [
    {
      "type": "Feature",
      "properties": {
        "norad_id": 66572,
        "name": "STARLINK-35870",
        "group": "last-30-days",
        "lat": -41.06731557366058,
        "lon": 34.7215655113526,
        "alt_km": 409.0872134605306,
        "timestamp": "2025-12-08T13:49:30.577194+00:00",
        "meta_object_name": "STARLINK-35870",
        "meta_object_id": "2025-268R",
        "meta_epoch": "2025-12-08T06:00:02.999808",
        "meta_mean_motion": 15.54792416,
        "meta_eccentricity": 0.00014772,
        "meta_inclination": 43.0005,
        "meta_ra_of_asc_node": 147.4004,
        "meta_arg_of_pericenter": 262.3218,
        "meta_mean_anomaly": 326.0477,
        "meta_ephemeris_type": 0,
        "meta_classification_type": "U",
        "meta_norad_cat_id": 66572,
        "meta_element_set_no": 999,
        "meta_rev_at_epoch": 394,
        "meta_bstar": -0.033714554,
        "meta_mean_motion_dot": -0.0205423,
        "meta_mean_motion_ddot": 0,
        "tle_line1": "1 66572U 25268R   25342.25003472 -.02054230  00000+0 -33715-1 0  9995",
        "tle_line2": "2 66572  43.0005 147.4004 0001477 262.3218 326.0477 15.54792416  3942"
      },
      "geometry": {
        "type": "Point",
        "coordinates": [
          34.7215655113526,
          -41.06731557366058
        ]
      }
    },
    {
      "type": "Feature",
      "properties": {
        "norad_id": 66573,
        "name": "STARLINK-35650",
        "group": "last-30-days",
        "lat": -41.50336754495529,
        "lon": 37.19500012190835,
        "alt_km": 409.2248490099537,
        "timestamp": "2025-12-08T13:49:30.577205+00:00",
        "meta_object_name": "STARLINK-35650",
        "meta_object_id": "2025-268S",
        "meta_epoch": "2025-12-08T06:00:02.999808",
        "meta_mean_motion": 15.54788259,
        "meta_eccentricity": 0.00012852,
        "meta_inclination": 43.0006,
        "meta_ra_of_asc_node": 147.3942,
        "meta_arg_of_pericenter": 264.8386,
        "meta_mean_anomaly": 325.4463,
        "meta_ephemeris_type": 0,
        "meta_classification_type": "U",
        "meta_norad_cat_id": 66573,
        "meta_element_set_no": 999,
        "meta_rev_at_epoch": 394,
        "meta_bstar": -0.033487359,
        "meta_mean_motion_dot": -0.0204147,
        "meta_mean_motion_ddot": 0,
        "tle_line1": "1 66573U 25268S   25342.25003472 -.02041470  00000+0 -33487-1 0  9994",
        "tle_line2": "2 66573  43.0006 147.3942 0001285 264.8386 325.4463 15.54788259  3942"
      },
      "geometry": {
        "type": "Point",
        "coordinates": [
          37.19500012190835,
          -41.50336754495529
        ]
      }
    },
    {
      "type": "Feature",
      "properties": {
        "norad_id": 66574,
        "name": "STARLINK-35812",
        "group": "last-30-days",
        "lat": -41.8853618191991,
        "lon": 39.70232173149403,
        "alt_km": 408.95494720279567,
        "timestamp": "2025-12-08T13:49:30.577217+00:00",
        "meta_object_name": "STARLINK-35812",
        "meta_object_id": "2025-268T",
        "meta_epoch": "2025-12-08T06:00:02.999808",
        "meta_mean_motion": 15.54774995,
        "meta_eccentricity": 0.00017145,
        "meta_inclination": 43.0003,
        "meta_ra_of_asc_node": 147.3883,
        "meta_arg_of_pericenter": 261.5218,
        "meta_mean_anomaly": 330.6921,
        "meta_ephemeris_type": 0,
        "meta_classification_type": "U",
        "meta_norad_cat_id": 66574,
        "meta_element_set_no": 999,
        "meta_rev_at_epoch": 394,
        "meta_bstar": -0.033368792,
        "meta_mean_motion_dot": -0.02034391,
        "meta_mean_motion_ddot": 0,
        "tle_line1": "1 66574U 25268T   25342.25003472 -.02034391  00000+0 -33369-1 0  9998",
        "tle_line2": "2 66574  43.0003 147.3883 0001714 261.5218 330.6921 15.54774995  3948"
      },
      "geometry": {
        "type": "Point",
        "coordinates": [
          39.70232173149403,
          -41.8853618191991
        ]
      }
    },
    {
      "type": "Feature",
      "properties": {
        "norad_id": 66575,
        "name": "STARLINK-35810",
        "group": "last-30-days",
        "lat": -42.2122721046158,
        "lon": 42.23961507230298,
        "alt_km": 409.19579176090974,
        "timestamp": "2025-12-08T13:49:30.577227+00:00",
        "meta_object_name": "STARLINK-35810",
        "meta_object_id": "2025-268U",
        "meta_epoch": "2025-12-08T06:00:02.999808",
        "meta_mean_motion": 15.54790055,
        "meta_eccentricity": 0.00013814,
        "meta_inclination": 43.0004,
        "meta_ra_of_asc_node": 147.3849,
        "meta_arg_of_pericenter": 265.9084,
        "meta_mean_anomaly": 328.2137,
        "meta_ephemeris_type": 0,
        "meta_classification_type": "U",
        "meta_norad_cat_id": 66575,
        "meta_element_set_no": 999,
        "meta_rev_at_epoch": 394,
        "meta_bstar": -0.033651387,
        "meta_mean_motion_dot": -0.02050575,
        "meta_mean_motion_ddot": 0,
        "tle_line1": "1 66575U 25268U   25342.25003472 -.02050575  00000+0 -33651-1 0  9995",
        "tle_line2": "2 66575  43.0004 147.3849 0001381 265.9084 328.2137 15.54790055  3948"
      },
      "geometry": {
        "type": "Point",
        "coordinates": [
          42.23961507230298,
          -42.2122721046158
        ]
      }
    },
    {
      "type": "Feature",
      "properties": {
        "norad_id": 66576,
        "name": "STARLINK-35814",
        "group": "last-30-days",
        "lat": -42.48257605948657,
        "lon": 44.80301615013584,
        "alt_km": 409.2380837754972,
        "timestamp": "2025-12-08T13:49:30.577237+00:00",
        "meta_object_name": "STARLINK-35814",
        "meta_object_id": "2025-268V",
        "meta_epoch": "2025-12-08T06:00:02.999808",
        "meta_mean_motion": 15.54793377,
        "meta_eccentricity": 0.00013193,
        "meta_inclination": 43.0002,
        "meta_ra_of_asc_node": 147.3802,
        "meta_arg_of_pericenter": 261.3624,
        "meta_mean_anomaly": 334.6752,
        "meta_ephemeris_type": 0,
        "meta_classification_type": "U",
        "meta_norad_cat_id": 66576,
        "meta_element_set_no": 999,
        "meta_rev_at_epoch": 394,
        "meta_bstar": -0.033711222,
        "meta_mean_motion_dot": -0.02054015,
        "meta_mean_motion_ddot": 0,
        "tle_line1": "1 66576U 25268V   25342.25003472 -.02054015  00000+0 -33711-1 0  9996",
        "tle_line2": "2 66576  43.0002 147.3802 0001319 261.3624 334.6752 15.54793377  3941"
      },
      "geometry": {
        "type": "Point",
        "coordinates": [
          44.80301615013584,
          -42.48257605948657
        ]
      }
    },
    {
      "type": "Feature",
      "properties": {
        "norad_id": 66577,
        "name": "STARLINK-35815",
        "group": "last-30-days",
        "lat": -42.69465995397415,
        "lon": 47.38009920451819,
        "alt_km": 409.17066033907304,
        "timestamp": "2025-12-08T13:49:30.577247+00:00",
        "meta_object_name": "STARLINK-35815",
        "meta_object_id": "2025-268W",
        "meta_epoch": "2025-12-08T06:00:02.999808",
        "meta_mean_motion": 15.54789316,
        "meta_eccentricity": 0.00014273,
        "meta_inclination": 43,
        "meta_ra_of_asc_node": 147.3753,
        "meta_arg_of_pericenter": 262.683,
        "meta_mean_anomaly": 335.2721,
        "meta_ephemeris_type": 0,
        "meta_classification_type": "U",
        "meta_norad_cat_id": 66577,
        "meta_element_set_no": 999,
        "meta_rev_at_epoch": 394,
        "meta_bstar": -0.033601815,
        "meta_mean_motion_dot": -0.02047858,
        "meta_mean_motion_ddot": 0,
        "tle_line1": "1 66577U 25268W   25342.25003472 -.02047858  00000+0 -33602-1 0  9993",
        "tle_line2": "2 66577  43.0000 147.3753 0001427 262.6830 335.2721 15.54789316  3949"
      },
      "geometry": {
        "type": "Point",
        "coordinates": [
          47.38009920451819,
          -42.69465995397415
        ]
      }
    },
    {
      "type": "Feature",
      "properties": {
        "norad_id": 66578,
        "name": "STARLINK-35743",
        "group": "last-30-days",
        "lat": -42.84882969523936,
        "lon": 49.97717124070074,
        "alt_km": 409.2403571738587,
        "timestamp": "2025-12-08T13:49:30.577259+00:00",
        "meta_object_name": "STARLINK-35743",
        "meta_object_id": "2025-268X",
        "meta_epoch": "2025-12-08T06:00:02.999808",
        "meta_mean_motion": 15.54795655,
        "meta_eccentricity": 0.00013421,
        "meta_inclination": 43,
        "meta_ra_of_asc_node": 147.3702,
        "meta_arg_of_pericenter": 263.5532,
        "meta_mean_anomaly": 336.3184,
        "meta_ephemeris_type": 0,
        "meta_classification_type": "U",
        "meta_norad_cat_id": 66578,
        "meta_element_set_no": 999,
        "meta_rev_at_epoch": 394,
        "meta_bstar": -0.033788409,
        "meta_mean_motion_dot": -0.02058379,
        "meta_mean_motion_ddot": 0,
        "tle_line1": "1 66578U 25268X   25342.25003472 -.02058379  00000+0 -33788-1 0  9999",
        "tle_line2": "2 66578  43.0000 147.3702 0001342 263.5532 336.3184 15.54795655  3947"
      },
      "geometry": {
        "type": "Point",
        "coordinates": [
          49.97717124070074,
          -42.84882969523936
        ]
      }
    }
  ]
}